{
"type": "FeatureCollection",
"name": "toponimi",
"crs": { "type": "name", "properties": { "name": "urn:ogc:def:crs:OGC:1.3:CRS84" } },
"xy_coordinate_resolution": 1e-18,
"features": [
{ "type": "Feature", "properties": { "OBJECTID": 222.0, "LAYER": "Toponimi", "NAMA_UNSUR": "Tanjung", "TOPONIMI": "Tg. Saganji", "image": null }, "geometry": { "type": "Point", "coordinates": [ 123.165283203000058165, -8.265856742999915241 ] } },
{ "type": "Feature", "properties": { "OBJECTID": 232.0, "LAYER": "Toponimi", "NAMA_UNSUR": "Tanjung", "TOPONIMI": "Tg. Matodai", "image": null }, "geometry": { "type": "Point", "coordinates": [ 123.056838989000084439, -8.302433967999945708 ] } },
{ "type": "Feature", "properties": { "OBJECTID": 233.0, "LAYER": "Toponimi", "NAMA_UNSUR": "Toponimi", "TOPONIMI": "Mokko", "image": null }, "geometry": { "type": "Point", "coordinates": [ 123.324821472000053291, -8.304313659999934316 ] } },
{ "type": "Feature", "properties": { "OBJECTID": 236.0, "LAYER": "Toponimi", "NAMA_UNSUR": "Toponimi", "TOPONIMI": "Watuwiti", "image": null }, "geometry": { "type": "Point", "coordinates": [ 123.052955627000073946, -8.308540343999936795 ] } },
{ "type": "Feature", "properties": { "OBJECTID": 242.0, "LAYER": "Toponimi", "NAMA_UNSUR": "Toponimi", "TOPONIMI": "Wai Batang", "image": null }, "geometry": { "type": "Point", "coordinates": [ 123.241958618000012393, -8.341126441999961116 ] } },
{ "type": "Feature", "properties": { "OBJECTID": 246.0, "LAYER": "Toponimi", "NAMA_UNSUR": "Toponimi", "TOPONIMI": "Wureh", "image": null }, "geometry": { "type": "Point", "coordinates": [ 123.093780518000016855, -8.351752280999960476 ] } },
{ "type": "Feature", "properties": { "OBJECTID": 254.0, "LAYER": "Toponimi", "NAMA_UNSUR": "Gunung", "TOPONIMI": "G. BOLENG", "image": "gunung-ile-boleng.jpg" }, "geometry": { "type": "Point", "coordinates": [ 123.274505615000066427, -8.37842845899990607 ] } },
{ "type": "Feature", "properties": { "OBJECTID": 267.0, "LAYER": "Toponimi", "NAMA_UNSUR": "Toponimi", "TOPONIMI": "Basarani", "image": null }, "geometry": { "type": "Point", "coordinates": [ 123.082443237000006775, -8.426635741999916718 ] } },
{ "type": "Feature", "properties": { "OBJECTID": 280.0, "LAYER": "Toponimi", "NAMA_UNSUR": "Toponimi", "TOPONIMI": "Lemakera", "image": null }, "geometry": { "type": "Point", "coordinates": [ 123.157417297000051803, -8.481070517999910408 ] } },
{ "type": "Feature", "properties": { "OBJECTID": 420.0, "LAYER": "Toponimi", "NAMA_UNSUR": "Tanjung", "TOPONIMI": "Tg. Kapondai", "image": null }, "geometry": { "type": "Point", "coordinates": [ 122.925697327000079895, -8.09938430799991238 ] } },
{ "type": "Feature", "properties": { "OBJECTID": 421.0, "LAYER": "Toponimi", "NAMA_UNSUR": "Tanjung", "TOPONIMI": "Tg. Bunga", "image": null }, "geometry": { "type": "Point", "coordinates": [ 122.778495789000089644, -8.140718459999959578 ] } },
{ "type": "Feature", "properties": { "OBJECTID": 422.0, "LAYER": "Toponimi", "NAMA_UNSUR": "Toponimi", "TOPONIMI": "Muleng", "image": null }, "geometry": { "type": "Point", "coordinates": [ 122.989128113000106168, -8.144465445999912845 ] } },
{ "type": "Feature", "properties": { "OBJECTID": 424.0, "LAYER": "Toponimi", "NAMA_UNSUR": "Toponimi", "TOPONIMI": "Mata", "image": null }, "geometry": { "type": "Point", "coordinates": [ 122.966606140000067171, -8.236608504999935576 ] } },
{ "type": "Feature", "properties": { "OBJECTID": 426.0, "LAYER": "Toponimi", "NAMA_UNSUR": "Teluk", "TOPONIMI": "TL. HADING", "image": null }, "geometry": { "type": "Point", "coordinates": [ 122.88568115200007469, -8.268121718999907444 ] } },
{ "type": "Feature", "properties": { "OBJECTID": 428.0, "LAYER": "Toponimi", "NAMA_UNSUR": "Tanjung", "TOPONIMI": "Tg. Belabati", "image": null }, "geometry": { "type": "Point", "coordinates": [ 122.830055237000010493, -8.283424376999960259 ] } },
{ "type": "Feature", "properties": { "OBJECTID": 429.0, "LAYER": "Toponimi", "NAMA_UNSUR": "Toponimi", "TOPONIMI": "Kotabura", "image": null }, "geometry": { "type": "Point", "coordinates": [ 122.877067566000050647, -8.320078849999958948 ] } },
{ "type": "Feature", "properties": { "OBJECTID": 430.0, "LAYER": "Toponimi", "NAMA_UNSUR": "Tanjung", "TOPONIMI": "Tg. Watudama", "image": null }, "geometry": { "type": "Point", "coordinates": [ 122.775657654000042385, -8.331610679999926106 ] } },
{ "type": "Feature", "properties": { "OBJECTID": 431.0, "LAYER": "Toponimi", "NAMA_UNSUR": "Gunung", "TOPONIMI": "G. MANDIRI", "image": "gunung-ile-mandiri.jpg" }, "geometry": { "type": "Point", "coordinates": [ 122.991645813000104681, -8.34527397199991583 ] } },
{ "type": "Feature", "properties": { "OBJECTID": 432.0, "LAYER": "Toponimi", "NAMA_UNSUR": "Toponimi", "TOPONIMI": "Oka", "image": null }, "geometry": { "type": "Point", "coordinates": [ 122.954231262000007519, -8.354322432999936154 ] } },
{ "type": "Feature", "properties": { "OBJECTID": 436.0, "LAYER": "Toponimi", "NAMA_UNSUR": "Gunung", "TOPONIMI": "G. LEWERO", "image": "gunung-ile-lewero.jpg" }, "geometry": { "type": "Point", "coordinates": [ 122.85282897900003718, -8.391332625999950778 ] } },
{ "type": "Feature", "properties": { "OBJECTID": 443.0, "LAYER": "Toponimi", "NAMA_UNSUR": "Toponimi", "TOPONIMI": "Wolo", "image": null }, "geometry": { "type": "Point", "coordinates": [ 122.916183472000057009, -8.442307471999924928 ] } },
{ "type": "Feature", "properties": { "OBJECTID": 444.0, "LAYER": "Toponimi", "NAMA_UNSUR": "Toponimi", "TOPONIMI": "Wairunu", "image": null }, "geometry": { "type": "Point", "coordinates": [ 122.82270813000002363, -8.444214820999945914 ] } },
{ "type": "Feature", "properties": { "OBJECTID": 445.0, "LAYER": "Toponimi", "NAMA_UNSUR": "Tanjung", "TOPONIMI": "Tg. Motang", "image": null }, "geometry": { "type": "Point", "coordinates": [ 122.978889465000065684, -8.446464538999919114 ] } },
{ "type": "Feature", "properties": { "OBJECTID": 455.0, "LAYER": "Toponimi", "NAMA_UNSUR": "Teluk", "TOPONIMI": "TL. KANGO", "image": null }, "geometry": { "type": "Point", "coordinates": [ 122.866851807000102781, -8.518972396999913599 ] } },
{ "type": "Feature", "properties": { "OBJECTID": 456.0, "LAYER": "Toponimi", "NAMA_UNSUR": "Toponimi", "TOPONIMI": "Nobo", "image": null }, "geometry": { "type": "Point", "coordinates": [ 122.81259155300006114, -8.52432537099991805 ] } },
{ "type": "Feature", "properties": { "OBJECTID": 469.0, "LAYER": "Toponimi", "NAMA_UNSUR": "Gunung", "TOPONIMI": "G. LEWOTOBI PEREMPUAN", "image": "gunung-ile-lewotobi-perempuan.jpg" }, "geometry": { "type": "Point", "coordinates": [ 122.756736755000019912, -8.583399772999939614 ] } },
{ "type": "Feature", "properties": { "OBJECTID": 476.0, "LAYER": "Toponimi", "NAMA_UNSUR": "Toponimi", "TOPONIMI": "Lewotobi", "image": null }, "geometry": { "type": "Point", "coordinates": [ 122.884269714000083695, -8.616971015999922656 ] } }
]
}
